OBJECT C                
1 57582U 23117C   25019.12645153  .00012656  00000+0  55244-3 0  9997
2 57582  97.4624  94.8747 0008169 259.3160 100.7156 15.22244914 79965
